OBJECT_NAME,OBJECT_ID,EPOCH,MEAN_MOTION,ECCENTRICITY,INCLINATION,RA_OF_ASC_NODE,ARG_OF_PERICENTER,MEAN_ANOMALY,EPHEMERIS_TYPE,CLASSIFICATION_TYPE,NORAD_CAT_ID,ELEMENT_SET_NO,REV_AT_EPOCH,BSTAR,MEAN_MOTION_DOT,MEAN_MOTION_DDOT
AEHF-4 (USA 288),2018-079A,2026-06-15T04:10:50.193984,1.00273117,.0060412,1.4314,3.8080,356.1706,258.6649,0,U,43651,999,2827,0,-.272E-5,0
BEIDOU-3 G1,2018-085A,2026-06-15T03:33:14.614848,1.00270421,.000807,2.8618,97.4369,349.0566,30.2170,0,U,43683,999,2804,0,-.107E-5,0
GSAT-29,2018-089A,2026-06-15T00:25:43.592160,1.00273290,.0003279,0.0615,100.3645,336.9241,247.5030,0,U,43698,999,2776,0,.9E-6,0
ES'HAIL 2,2018-090A,2026-06-15T04:37:42.665088,1.00269595,.0001569,0.0180,3.5947,120.8003,234.3029,0,U,43700,999,2765,0,.148E-5,0
GEO-KOMPSAT-2A,2018-100A,2026-06-15T00:05:38.738112,1.00271543,.0001774,0.0511,125.6739,320.0070,307.2938,0,U,43823,999,2760,0,-.339E-5,0
GSAT-11,2018-100B,2026-06-15T04:42:21.731040,1.00270966,.000762,0.0361,252.3116,195.2631,320.5010,0,U,43824,999,2745,0,-.73E-6,0
GSAT-7A,2018-105A,2026-06-14T23:45:21.040704,1.00270026,.0001907,0.0195,30.9552,31.5959,259.8279,0,U,43864,999,2742,0,0,0
COSMOS 2533,2018-107A,2026-06-15T04:52:21.721152,1.00270333,.0000667,0.0476,100.3144,14.0704,292.1771,0,U,43867,999,2742,0,-.34E-6,0
TJS-3,2018-110A,2026-06-14T17:03:02.124864,1.00270992,.0002101,2.5384,80.5210,83.7025,142.8008,0,U,43874,999,2739,0,-.212E-5,0
ZHONGXING-2D,2019-001A,2026-06-15T05:07:17.329728,1.00272310,.0001456,0.0364,248.6196,88.5555,133.1640,0,U,43920,999,5406,0,-.333E-5,0
HELLAS-SAT 4 & SGS-1,2019-007A,2026-06-14T20:08:13.683264,1.00270136,.00053364,0.0725,130.5749,13.0583,100.5940,0,U,44034,999,2734,0,.158E-5,0
GSAT-31,2019-007B,2026-06-15T04:43:57.068256,1.00273342,.000175,0.0703,259.9074,101.6362,20.7568,0,U,44035,999,2694,0,.129E-5,0
NUSANTARA SATU,2019-009A,2026-06-14T23:41:38.858784,1.00270646,.0004183,0.0492,151.8992,324.4080,288.3947,0,U,44048,999,2674,0,-.229E-5,0
ZHONGXING-6C,2019-012A,2026-06-15T05:07:24.818016,1.00272103,.0013605,0.1137,78.9805,331.3619,60.4294,0,U,44067,999,2672,0,-.331E-5,0
WGS 10 (USA 291),2019-014A,2026-06-14T22:30:48.333024,1.00270687,.0000462,0.0184,29.3987,282.6295,349.2161,0,U,44071,999,2659,0,.52E-6,0
TIANLIAN 2-01,2019-017A,2026-06-14T23:44:19.111776,1.00270516,.0000637,0.5344,83.1137,29.6207,223.6389,0,U,44076,999,2662,0,-.102E-5,0
ARABSAT-6A,2019-021A,2026-06-14T23:31:05.380032,1.00271287,.0001484,0.0548,16.7521,351.0176,278.7827,0,U,44186,999,2613,0,.158E-5,0
BEIDOU-3 IGSO-1,2019-023A,2026-06-06T22:54:10.040832,1.00294886,.00254341,58.6799,37.7569,225.6649,92.8731,0,U,44204,999,710,0,-.215E-5,0
BEIDOU-2 G8,2019-027A,2026-06-15T05:11:31.922016,1.00271357,.0010239,1.6520,74.4957,281.9515,129.4851,0,U,44231,999,2606,0,-.244E-5,0
YAMAL 601,2019-031A,2026-06-15T04:44:19.531392,1.00270175,.0002314,0.0140,39.3676,47.6696,296.5342,0,U,44307,999,2590,0,.124E-5,0
AT&T T-16,2019-034A,2026-06-14T22:53:39.740352,1.00270085,.0000917,0.0168,52.8036,244.2232,208.7830,0,U,44333,999,2561,0,-.11E-5,0
EUTELSAT 7C,2019-034B,2026-06-15T04:32:20.679936,1.00269772,.0002913,0.0734,175.7687,251.9707,270.8311,0,U,44334,999,681,0,.52E-6,0
BEIDOU-3 IGSO-2,2019-035A,2026-06-14T14:58:00.763680,1.00267330,.0039904,55.2456,158.8849,216.4592,231.8306,0,U,44337,999,2564,0,-.71E-6,0
COSMOS 2539,2019-048A,2026-06-15T04:33:43.049376,1.00269087,.0000409,0.0380,90.3194,355.4919,258.0845,0,U,44457,999,2520,0,.85E-6,0
EDRS-C,2019-049A,2026-06-15T03:28:22.581120,1.00269921,.0000047,0.0157,50.7049,71.0176,336.3147,0,U,44475,999,2519,0,-.258E-5,0
INTELSAT 39 (IS-39),2019-049B,2026-06-14T23:45:37.861056,1.00270489,.0000948,0.0025,346.6493,326.8079,8.1815,0,U,44476,999,2510,0,.39E-6,0
AMOS-17,2019-050A,2026-06-15T04:35:12.906240,1.00272129,.0001566,0.0178,328.9690,149.9052,230.3949,0,U,44479,999,2516,0,.113E-5,0
AEHF-5 (USA 292),2019-051A,2026-06-15T01:16:38.720352,1.00274313,.0066374,1.4564,336.0492,0.1124,39.3824,0,U,44481,999,2524,0,-.253E-5,0
EUTELSAT 5 WEST B,2019-067A,2026-06-15T04:28:58.503072,1.00272080,.0002877,0.0630,2.4546,79.8249,243.4624,0,U,44624,999,2441,0,-.38E-6,0
TJS-4,2019-070A,2026-06-14T23:46:11.432640,1.00268509,.0004409,0.0186,32.2026,8.4067,302.6938,0,U,44637,999,2451,0,-.164E-5,0
BEIDOU-3 IGSO-3,2019-073A,2026-05-16T19:27:04.075776,1.00246251,.0042953,54.8566,281.2355,189.4588,170.3676,0,U,44709,999,2414,0,-.217E-5,0
TIBA-1,2019-080A,2026-06-15T00:35:38.686848,1.00269566,.0001778,0.0519,5.4050,90.1269,212.1803,0,U,44800,999,2403,0,.161E-5,0
